ONEWEB-0258             
1 48976U 21060K   25161.78320668 -.00000029  00000+0 -11016-3 0  9992
2 48976  87.9037 302.8229 0001910  98.2583 261.8765 13.16595401190721
ONEWEB-0259             
1 48977U 21060L   25161.77686219  .00000028  00000+0  38542-4 0  9990
2 48977  87.9037 302.8079 0001988 103.4336 256.7016 13.16595891190753
ONEWEB-0260             
1 48978U 21060M   25161.76815324  .00000050  00000+0  97246-4 0  9992
2 48978  87.9032 302.8375 0001315 104.5362 255.5914 13.16596796190730
ONEWEB-0261             
1 48979U 21060N   25161.81408431 -.00000035  00000+0 -12597-3 0  9996
2 48979  87.9034 302.8294 0001854 114.2030 245.9295 13.16594080190796
ONEWEB-0262             
1 48980U 21060P   25161.79427825 -.00000071  00000+0 -22048-3 0  9995
2 48980  87.9039 302.7930 0002200 102.5115 257.6262 13.16595085190755
ONEWEB-0263             
1 48981U 21060Q   25161.82594166  .00000056  00000+0  11361-3 0  9990
2 48981  87.9034 302.8122 0002103 110.1612 249.9745 13.16592159190720
ONEWEB-0264             
1 48982U 21060R   25161.78716653 -.00000072  00000+0 -22190-3 0  9995
2 48982  87.9035 302.8256 0001895 102.2978 257.8365 13.16593476190723
ONEWEB-0266             
1 48984U 21060T   25161.80852369 -.00000293  00000+0 -80012-3 0  9997
2 48984  87.9038 302.7943 0001981  95.3381 264.7976 13.16594157190717
